0 LEMUR 2 ANDIS
1 42838U 17042P   24189.56288337  .00007811  00000-0  56125-3 0  9994
2 42838  97.3614  17.0496 0015811 333.2673  26.7737 15.04433556380703
0 LEMUR 2 MONSON
1 42839U 17042Q   24189.58812903  .00007641  00000-0  56275-3 0  9996
2 42839  97.3961  17.0733 0009636 313.7811  46.2617 15.03573387380652
0 LEMUR 2 FURIAUS
1 42840U 17042R   24189.28219450  .00007328  00000-0  53886-3 0  9990
2 42840  97.3630  16.7811 0013503  17.6931 342.4763 15.03607853380605
0 LEMUR 2 PETERG
1 42841U 17042S   24189.42194671  .00009034  00000-0  65446-3 0  9995
2 42841  97.3900  18.7822 0005574 311.0211  49.0533 15.04170268380703
0 LEMUR 2 DEMBITZ
1 42842U 17042T   24189.41266231  .00007767  00000-0  56609-3 0  9999
2 42842  97.3790  18.5038 0011043 334.8906  25.1782 15.03952382380727
0 LEMUR 2 ZACHARY
1 42845U 17042W   24189.42627362  .00009870  00000-0  63947-3 0  9999
2 42845  97.3756  19.2138 0008017  15.6620 344.4856 15.08293442380915
0 LEMUR 2 JIN-LUEN
1 43182U 18014C   24189.25518215  .00008816  00000-0  50107-3 0  9994
2 43182  97.5867  92.2809 0009872 286.6812  73.3334 15.13091387351786
0 LEMUR 2 URAMCHANSOL
1 43183U 18014D   24189.24361576  .00015953  00000-0  81086-3 0  9990
2 43183  97.5865  93.9165 0009603 272.1253  87.8880 15.16909977351882
0 LEMUR 2 KADI
1 43184U 18014E   24189.85529710  .00011424  00000-0  62989-3 0  9994
2 43184  97.5664  92.3335 0008613 255.1999 104.8278 15.14113924351899
0 LEMUR 2 THENICKMOLO
1 43185U 18014F   24189.26572162  .00013797  00000-0  72413-3 0  9997
2 43185  97.5834  92.9871 0005319 259.7936 100.2696 15.15838674351847
0 LEMUR 2 CHRISTINAHOLT
1 43882U 18111G   24189.71971355  .00027198  00000-0  12321-2 0  9997
2 43882  97.6326 102.8235 0004963 238.3437 121.7314 15.20825746300904
0 LEMUR 2 TINYKEV
1 43883U 18111H   24189.32328416  .00030239  00000-0  12086-2 0  9997
2 43883  97.6104 102.6991 0004554 239.5263 120.5525 15.25057049302969
0 LEMUR 2 REMY-COLTON
1 43884U 18111J   24189.72548183  .00022100  00000-0  10001-2 0  9990
2 43884  97.6274 103.4685 0001280 103.7910 256.3467 15.20916098300976
0 LEMUR 2 GUSTAVO
1 43885U 18111K   24189.81670576  .00019882  00000-0  92268-3 0  9992
2 43885  97.6261 102.5793 0009739 252.0165 108.0008 15.20030405300928
0 LEMUR 2 ZO
1 43886U 18111L   24189.70540433  .00020714  00000-0  96993-3 0  9994
2 43886  97.6148 101.8855 0008391 274.6889  85.3387 15.19723280300914
0 LEMUR 2 NATALIEMURRAY
1 43887U 18111M   24189.30904328  .00018246  00000-0  83853-3 0  9996
2 43887  97.6292 103.1049 0006876 208.9909 151.0944 15.20408113302890
0 LEMUR 2 SARAHBETTYBOO
1 43888U 18111N   24189.33400356  .00020379  00000-0  90717-3 0  9999
2 43888  97.6652 106.4850 0007847 315.7113  44.3494 15.21473878302930
0 LEMUR 2 DAISY-HARPER
1 43889U 18111P   24189.34038134  .00022625  00000-0  93006-3 0  9992
2 43889  97.6499 106.6224 0005905 316.4433  43.6337 15.24168259302983
0 LEMUR-2-DAYWZAGOODDAY
1 46501U 20068R   24190.17705072  .00053363  00000-0  11661-2 0  9994
2 46501  97.7858 160.9650 0004822 175.0234 185.1062 15.43995654208214
0 LEMUR-2-NICHOL
1 46503U 20068T   24189.89378381  .00041651  00000-0  10595-2 0  9994
2 46503  97.7895 158.9651 0004288 199.3097 160.7985 15.39476739208077
